[
    {
        "Altitude(m)": 704227.0690340919,
        "Argument of Periapsis(deg)": 0.006834072711976239,
        "Eccentricity": 0.0,
        "Inclination(deg)": 45.0,
        "Latitude(deg)": -4.980531017080554,
        "Longitude(deg)": 29.520542165321626,
        "Mean Anomaly(deg)": -173.08007001151154,
        "RAAN(deg)": 304.9935488351251,
        "Satellite Name": "Constellation 1 1353",
        "Satellite Number": 1353,
        "Semi-Major Axis(m)": 7083131.272910544,
        "Time(s)": 114
    },
    {
        "Altitude(m)": 704235.0003007831,
        "Argument of Periapsis(deg)": 0.006894020718221645,
        "Eccentricity": 0.0,
        "Inclination(deg)": 45.0,
        "Latitude(deg)": -5.023570516130438,
        "Longitude(deg)": 29.559608242562142,
        "Mean Anomaly(deg)": -173.01936887126163,
        "RAAN(deg)": 304.9934922459595,
        "Satellite Name": "Constellation 1 1353",
        "Satellite Number": 1353,
        "Semi-Major Axis(m)": 7083131.272910544,
        "Time(s)": 115
    },
    {
        "Altitude(m)": 704242.9508330498,
        "Argument of Periapsis(deg)": 0.006953968724467052,
        "Eccentricity": 0.0,
        "Inclination(deg)": 45.0,
        "Latitude(deg)": -5.066607021841009,
        "Longitude(deg)": 29.59867989966026,
        "Mean Anomaly(deg)": -172.9586677310117,
        "RAAN(deg)": 304.99343565679396,
        "Satellite Name": "Constellation 1 1353",
        "Satellite Number": 1353,
        "Semi-Major Axis(m)": 7083131.272910544,
        "Time(s)": 116
    },
    {
        "Altitude(m)": 704250.9206137183,
        "Argument of Periapsis(deg)": 0.007013916730712457,
        "Eccentricity": 0.0,
        "Inclination(deg)": 45.0,
        "Latitude(deg)": -5.1096405086906165,
        "Longitude(deg)": 29.63775718560193,
        "Mean Anomaly(deg)": -172.89796659076185,
        "RAAN(deg)": 304.9933790676284,
        "Satellite Name": "Constellation 1 1353",
        "Satellite Number": 1353,
        "Semi-Major Axis(m)": 7083131.272910544,
        "Time(s)": 117
    },
    {
        "Altitude(m)": 704258.9096255326,
        "Argument of Periapsis(deg)": 0.007073864736957864,
        "Eccentricity": 0.0,
        "Inclination(deg)": 45.0,
        "Latitude(deg)": -5.152670951147405,
        "Longitude(deg)": 29.676840149385594,
        "Mean Anomaly(deg)": -172.8372654505119,
        "RAAN(deg)": 304.9933224784628,
        "Satellite Name": "Constellation 1 1353",
        "Satellite Number": 1353,
        "Semi-Major Axis(m)": 7083131.272910544,
        "Time(s)": 118
    },
    {
        "Altitude(m)": 704266.9178511291,
        "Argument of Periapsis(deg)": 0.0071338127432032696,
        "Eccentricity": 0.0,
        "Inclination(deg)": 45.0,
        "Latitude(deg)": -5.195698323669051,
        "Longitude(deg)": 29.715928671924498,
        "Mean Anomaly(deg)": -172.77656431026205,
        "RAAN(deg)": 304.9932658892973,
        "Satellite Name": "Constellation 1 1353",
        "Satellite Number": 1353,
        "Semi-Major Axis(m)": 7083131.272910544,
        "Time(s)": 119
    },
    {
        "Altitude(m)": 704274.9452730711,
        "Argument of Periapsis(deg)": 0.007193760749448674,
        "Eccentricity": 0.0,
        "Inclination(deg)": 45.0,
        "Latitude(deg)": -5.238722600701933,
        "Longitude(deg)": 29.755023138435376,
        "Mean Anomaly(deg)": -172.7158631700121,
        "RAAN(deg)": 304.99320930013164,
        "Satellite Name": "Constellation 1 1353",
        "Satellite Number": 1353,
        "Semi-Major Axis(m)": 7083131.272910544,
        "Time(s)": 120
    },
    {
        "Altitude(m)": 704282.9918738264,
        "Argument of Periapsis(deg)": 0.007253708755694079,
        "Eccentricity": 0.0,
        "Inclination(deg)": 45.0,
        "Latitude(deg)": -5.281743756682533,
        "Longitude(deg)": 29.79412342985649,
        "Mean Anomaly(deg)": -172.65516202976218,
        "RAAN(deg)": 304.9931527109661,
        "Satellite Name": "Constellation 1 1353",
        "Satellite Number": 1353,
        "Semi-Major Axis(m)": 7083131.272910544,
        "Time(s)": 121
    },
    {
        "Altitude(m)": 704291.057635774,
        "Argument of Periapsis(deg)": 0.0073136567619394854,
        "Eccentricity": 0.0,
        "Inclination(deg)": 45.0,
        "Latitude(deg)": -5.3247617660361195,
        "Longitude(deg)": 29.833229595235313,
        "Mean Anomaly(deg)": -172.5944608895123,
        "RAAN(deg)": 304.99309612180053,
        "Satellite Name": "Constellation 1 1353",
        "Satellite Number": 1353,
        "Semi-Major Axis(m)": 7083131.272910544,
        "Time(s)": 122
    },
    {
        "Altitude(m)": 704299.1425411942,
        "Argument of Periapsis(deg)": 0.0073736047681848904,
        "Eccentricity": 0.0,
        "Inclination(deg)": 45.0,
        "Latitude(deg)": -5.367776603177303,
        "Longitude(deg)": 29.872341683632218,
        "Mean Anomaly(deg)": -172.53375974926237,
        "RAAN(deg)": 304.99303953263495,
        "Satellite Name": "Constellation 1 1353",
        "Satellite Number": 1353,
        "Semi-Major Axis(m)": 7083131.272910544,
        "Time(s)": 123
    },
    {
        "Altitude(m)": 704307.2465722989,
        "Argument of Periapsis(deg)": 0.007433552774430298,
        "Eccentricity": 0.0,
        "Inclination(deg)": 45.0,
        "Latitude(deg)": -5.410788242509404,
        "Longitude(deg)": 29.911459744119874,
        "Mean Anomaly(deg)": -172.47305860901253,
        "RAAN(deg)": 304.99298294346943,
        "Satellite Name": "Constellation 1 1353",
        "Satellite Number": 1353,
        "Semi-Major Axis(m)": 7083131.272910544,
        "Time(s)": 124
    },
    {
        "Altitude(m)": 704315.3697111958,
        "Argument of Periapsis(deg)": 0.007493500780675703,
        "Eccentricity": 0.0,
        "Inclination(deg)": 45.0,
        "Latitude(deg)": -5.4537966584249835,
        "Longitude(deg)": 29.950583825784197,
        "Mean Anomaly(deg)": -172.4123574687626,
        "RAAN(deg)": 304.99292635430385,
        "Satellite Name": "Constellation 1 1353",
        "Satellite Number": 1353,
        "Semi-Major Axis(m)": 7083131.272910544,
        "Time(s)": 125
    },
    {
        "Altitude(m)": 704323.5119399008,
        "Argument of Periapsis(deg)": 0.007553448786921108,
        "Eccentricity": 0.0,
        "Inclination(deg)": 45.0,
        "Latitude(deg)": -5.496801825305432,
        "Longitude(deg)": 29.9897138096266,
        "Mean Anomaly(deg)": -172.35165632851266,
        "RAAN(deg)": 304.99286976513827,
        "Satellite Name": "Constellation 1 1353",
        "Satellite Number": 1353,
        "Semi-Major Axis(m)": 7083131.272910544,
        "Time(s)": 126
    },
    {
        "Altitude(m)": 704331.673240353,
        "Argument of Periapsis(deg)": 0.007613396793166514,
        "Eccentricity": 0.0,
        "Inclination(deg)": 45.0,
        "Latitude(deg)": -5.539803717520164,
        "Longitude(deg)": 30.02885008095292,
        "Mean Anomaly(deg)": -172.29095518826284,
        "RAAN(deg)": 304.9928131759727,
        "Satellite Name": "Constellation 1 1353",
        "Satellite Number": 1353,
        "Semi-Major Axis(m)": 7083131.272910544,
        "Time(s)": 127
    },
    {
        "Altitude(m)": 704339.8535943885,
        "Argument of Periapsis(deg)": 0.007673344799411918,
        "Eccentricity": 0.0,
        "Inclination(deg)": 45.0,
        "Latitude(deg)": -5.582802309428094,
        "Longitude(deg)": 30.067992520790803,
        "Mean Anomaly(deg)": -172.230254048013,
        "RAAN(deg)": 304.9927565868071,
        "Satellite Name": "Constellation 1 1353",
        "Satellite Number": 1353,
        "Semi-Major Axis(m)": 7083131.272910544,
        "Time(s)": 128
    },
    {
        "Altitude(m)": 704348.0529837717,
        "Argument of Periapsis(deg)": 0.007733292805657325,
        "Eccentricity": 0.0,
        "Inclination(deg)": 45.0,
        "Latitude(deg)": -5.625797575376354,
        "Longitude(deg)": 30.107141178278216,
        "Mean Anomaly(deg)": -172.169552907763,
        "RAAN(deg)": 304.9926999976416,
        "Satellite Name": "Constellation 1 1353",
        "Satellite Number": 1353,
        "Semi-Major Axis(m)": 7083131.272910544,
        "Time(s)": 129
    },
    {
        "Altitude(m)": 704356.2713901581,
        "Argument of Periapsis(deg)": 0.00779324081190273,
        "Eccentricity": 0.0,
        "Inclination(deg)": 45.0,
        "Latitude(deg)": -5.6687894897004965,
        "Longitude(deg)": 30.146296102566392,
        "Mean Anomaly(deg)": -172.10885176751307,
        "RAAN(deg)": 304.992643408476,
        "Satellite Name": "Constellation 1 1353",
        "Satellite Number": 1353,
        "Semi-Major Axis(m)": 7083131.272910544,
        "Time(s)": 130
    },
    {
        "Altitude(m)": 704364.508795131,
        "Argument of Periapsis(deg)": 0.007853188818148135,
        "Eccentricity": 0.0,
        "Inclination(deg)": 45.0,
        "Latitude(deg)": -5.7117780267243985,
        "Longitude(deg)": 30.18545734281979,
        "Mean Anomaly(deg)": -172.04815062726325,
        "RAAN(deg)": 304.99258681931036,
        "Satellite Name": "Constellation 1 1353",
        "Satellite Number": 1353,
        "Semi-Major Axis(m)": 7083131.272910544,
        "Time(s)": 131
    },
    {
        "Altitude(m)": 704372.7651801747,
        "Argument of Periapsis(deg)": 0.007913136824393542,
        "Eccentricity": 0.0,
        "Inclination(deg)": 45.0,
        "Latitude(deg)": -5.754763160760391,
        "Longitude(deg)": 30.224624948216793,
        "Mean Anomaly(deg)": -171.98744948701332,
        "RAAN(deg)": 304.99253023014484,
        "Satellite Name": "Constellation 1 1353",
        "Satellite Number": 1353,
        "Semi-Major Axis(m)": 7083131.272910544,
        "Time(s)": 132
    }
]